OBJECT_NAME,OBJECT_ID,EPOCH,MEAN_MOTION,ECCENTRICITY,INCLINATION,RA_OF_ASC_NODE,ARG_OF_PERICENTER,MEAN_ANOMALY,EPHEMERIS_TYPE,CLASSIFICATION_TYPE,NORAD_CAT_ID,ELEMENT_SET_NO,REV_AT_EPOCH,BSTAR,MEAN_MOTION_DOT,MEAN_MOTION_DDOT
STARLINK-35856,2025-293L,2026-07-19T04:47:23.945280,14.98334738,.00035497,70.0006,122.9977,262.9067,97.1689,0,U,67013,999,3458,.19007852E-3,.2176E-4,0
STARLINK-36207,2025-293M,2026-07-19T04:35:22.791264,14.98336264,.00027851,70.0006,122.9678,268.7259,91.3581,0,U,67014,999,3458,.23014457E-3,.2655E-4,0
STARLINK-36093,2025-293N,2026-07-19T05:47:28.294944,14.98332815,.00025145,70.0008,122.7420,259.8303,100.2573,0,U,67015,999,3459,.11634579E-3,.1296E-4,0
STARLINK-36120,2025-293P,2026-07-19T04:23:22.670592,14.98342164,.00027634,70.0009,122.9390,255.1343,104.9510,0,U,67016,999,3458,.29116061E-3,.3384E-4,0
STARLINK-35498,2025-293Q,2026-07-19T03:59:18.752928,14.98334331,.00028319,70.0009,122.8803,267.7307,92.3528,0,U,67017,999,3458,.1480464E-3,.1674E-4,0
STARLINK-36106,2025-293R,2026-07-19T05:23:25.353600,14.98339191,.00027539,70.0004,122.6830,270.1432,89.9412,0,U,67018,999,3459,.18419236E-3,.2106E-4,0
STARLINK-35688,2025-293S,2026-07-19T05:05:40.200576,14.98334650,.00030282,70.0009,123.0414,259.7613,100.3205,0,U,67019,999,3458,.16783755E-3,.191E-4,0
STARLINK-36172,2025-293T,2026-07-19T04:17:35.074752,14.98334598,.00027718,70.0008,122.9240,267.2120,92.8722,0,U,67020,999,3457,.16544997E-3,.1882E-4,0
STARLINK-36184,2025-293U,2026-07-19T04:41:39.033024,14.98341587,.0003369,70.0009,122.9808,265.6197,94.4577,0,U,67021,999,3458,.56951932E-3,.6711E-4,0
STARLINK-36209,2025-293V,2026-07-19T03:53:32.077248,14.98345620,.0001288,70.0022,122.8679,247.9815,112.1208,0,U,67022,999,3458,.38463304E-3,.4501E-4,0
STARLINK-36191,2025-293W,2026-07-19T04:53:38.936832,14.98337655,.000263,70.0006,123.0116,269.4295,90.6563,0,U,67023,999,3458,.11715099E-3,.1305E-4,0
STARLINK-36192,2025-293X,2026-07-19T04:29:36.328128,14.98334130,.00033661,70.0006,122.9520,253.4013,106.6777,0,U,67024,999,3458,.18219941E-3,.2082E-4,0
STARLINK-36178,2025-293Y,2026-07-19T05:41:41.727264,14.98334447,.00030004,70.0011,122.7260,267.0249,93.0567,0,U,67025,999,3459,.15207085E-3,.1722E-4,0
STARLINK-36176,2025-293Z,2026-07-19T05:11:38.535072,14.98334427,.00025735,70.0006,122.6515,270.1631,89.9233,0,U,67026,999,3458,.13811409E-3,.1556E-4,0
STARLINK-36171,2025-293AA,2026-07-19T05:17:38.589792,14.98325639,.00026043,70.0014,122.6690,265.9369,94.1493,0,U,67027,999,3459,-.21271793E-3,-.263E-4,0
STARLINK-36132,2025-293AB,2026-07-19T04:47:38.184864,14.98337216,.00027412,70.0006,122.9945,273.5336,86.5510,0,U,67028,999,3458,.17583271E-3,.2006E-4,0
STARLINK-36190,2025-293AC,2026-07-19T04:59:39.551424,14.98335714,.00028052,70.0007,123.0265,263.4921,96.5919,0,U,67029,999,3458,.17304862E-3,.1973E-4,0
STARLINK-36138,2025-294A,2026-07-18T19:50:09.718368,15.27589516,.00016398,43.0031,17.5960,268.6195,91.4469,0,U,67030,999,3485,.36041729E-3,.9672E-4,0
STARLINK-36150,2025-294B,2026-07-19T04:15:53.557344,15.27582254,.00016148,43.0007,15.0714,273.6877,86.3790,0,U,67031,999,3491,.19830265E-3,.5199E-4,0
STARLINK-36131,2025-294C,2026-07-18T20:41:45.528000,15.27587609,.00013964,43.0031,17.0056,269.9440,90.1251,0,U,67032,999,3486,.19105213E-3,.5E-4,0
STARLINK-36137,2025-294D,2026-07-18T20:36:13.378752,15.27565644,.00017411,43.0021,16.9759,269.3720,90.6932,0,U,67033,999,3486,.80104878E-4,.1942E-4,0
STARLINK-36140,2025-294E,2026-07-18T20:12:22.178304,15.27590547,.00017123,43.0026,17.7134,265.8951,94.1705,0,U,67034,999,3485,.48880819E-3,.13217E-3,0
STARLINK-36085,2025-294F,2026-07-18T18:41:55.061664,15.27606497,.00016115,43.0011,18.0986,279.3950,80.6719,0,U,67035,999,3484,.32996761E-3,.8836E-4,0
STARLINK-36125,2025-294G,2026-07-19T04:58:27.143040,15.27582635,.0001406,43.0032,15.2879,271.4898,88.5793,0,U,67036,999,3491,.23587908E-3,.6235E-4,0
STARLINK-35732,2025-294H,2026-07-18T20:04:58.179072,15.27580095,.00015364,43.0007,17.6671,265.9226,94.1450,0,U,67037,999,3485,.43876665E-3,.11831E-3,0
STARLINK-35775,2025-294J,2026-07-19T04:39:56.799360,15.27583238,.0001353,42.9996,15.1934,261.5761,98.4937,0,U,67038,999,3492,.20708822E-3,.5441E-4,0
STARLINK-35705,2025-294K,2026-07-19T04:47:21.220224,15.27592248,.00003325,42.9999,15.2283,335.2147,24.8689,0,U,67039,999,3491,.42766897E-3,.11529E-3,0
STARLINK-35786,2025-294L,2026-07-18T18:27:06.693408,15.27584407,.0001388,42.9997,18.0190,266.0592,94.0101,0,U,67040,999,3484,.17532068E-3,.4566E-4,0
STARLINK-35765,2025-294M,2026-07-18T19:44:36.512448,15.27590158,.00015083,43.0031,17.5616,267.5270,92.5409,0,U,67041,999,3485,.33265666E-3,.8906E-4,0
STARLINK-35773,2025-294N,2026-07-18T21:15:04.278816,15.27580510,.0001452,43.0035,17.1755,262.9510,97.1177,0,U,67042,999,3486,.16888714E-3,.4388E-4,0
