[ {"name": "STARLINK-35856", "line1": "1 67013U 25293L   26200.19958270  .00002176  00000+0  19008-3 0  9995", "line2": "2 67013  70.0006 122.9977 0003549 262.9067  97.1689 14.98334738 34582"}, {"name": "STARLINK-36207", "line1": "1 67014U 25293M   26200.19123601  .00002655  00000+0  23014-3 0  9992", "line2": "2 67014  70.0006 122.9678 0002785 268.7259  91.3581 14.98336264 34582"}, {"name": "STARLINK-36093", "line1": "1 67015U 25293N   26200.24129971  .00001296  00000+0  11635-3 0  9991", "line2": "2 67015  70.0008 122.7420 0002514 259.8303 100.2573 14.98332815 34599"}, {"name": "STARLINK-36120", "line1": "1 67016U 25293P   26200.18290128  .00003384  00000+0  29116-3 0  9991", "line2": "2 67016  70.0009 122.9390 0002763 255.1343 104.9510 14.98342164 34587"}, {"name": "STARLINK-35498", "line1": "1 67017U 25293Q   26200.16618927  .00001674  00000+0  14805-3 0  9990", "line2": "2 67017  70.0009 122.8803 0002831 267.7307  92.3528 14.98334331 34587"}, {"name": "STARLINK-36106", "line1": "1 67018U 25293R   26200.22459900  .00002106  00000+0  18419-3 0  9998", "line2": "2 67018  70.0004 122.6830 0002753 270.1432  89.9412 14.98339191 34595"}, {"name": "STARLINK-35688", "line1": "1 67019U 25293S   26200.21227084  .00001910  00000+0  16784-3 0  9999", "line2": "2 67019  70.0009 123.0414 0003028 259.7613 100.3205 14.98334650 34586"}, {"name": "STARLINK-36172", "line1": "1 67020U 25293T   26200.17887818  .00001882  00000+0  16545-3 0  9996", "line2": "2 67020  70.0008 122.9240 0002771 267.2120  92.8722 14.98334598 34572"}, {"name": "STARLINK-36184", "line1": "1 67021U 25293U   26200.19559066  .00006711  00000+0  56952-3 0  9992", "line2": "2 67021  70.0009 122.9808 0003369 265.6197  94.4577 14.98341587 34587"}, {"name": "STARLINK-36209", "line1": "1 67022U 25293V   26200.16217682  .00004501  00000+0  38463-3 0  9997", "line2": "2 67022  70.0022 122.8679 0001288 247.9815 112.1208 14.98345620 34587"}, {"name": "STARLINK-36191", "line1": "1 67023U 25293W   26200.20392288  .00001305  00000+0  11715-3 0  9999", "line2": "2 67023  70.0006 123.0116 0002630 269.4295  90.6563 14.98337655 34585"}, {"name": "STARLINK-36192", "line1": "1 67024U 25293X   26200.18722602  .00002082  00000+0  18220-3 0  9995", "line2": "2 67024  70.0006 122.9520 0003366 253.4013 106.6777 14.98334130 34581"}, {"name": "STARLINK-36178", "line1": "1 67025U 25293Y   26200.23728851  .00001722  00000+0  15207-3 0  9996", "line2": "2 67025  70.0011 122.7260 0003000 267.0249  93.0567 14.98334447 34592"}, {"name": "STARLINK-36176", "line1": "1 67026U 25293Z   26200.21641823  .00001556  00000+0  13811-3 0  9992", "line2": "2 67026  70.0006 122.6515 0002573 270.1631  89.9233 14.98334427 34584"}, {"name": "STARLINK-36171", "line1": "1 67027U 25293AA  26200.22058553 -.00002630  00000+0 -21272-3 0  9992", "line2": "2 67027  70.0014 122.6690 0002604 265.9369  94.1493 14.98325639 34595"}, {"name": "STARLINK-36132", "line1": "1 67028U 25293AB  26200.19974751  .00002006  00000+0  17583-3 0  9991", "line2": "2 67028  70.0006 122.9945 0002741 273.5336  86.5510 14.98337216 34582"}, {"name": "STARLINK-36190", "line1": "1 67029U 25293AC  26200.20809666  .00001973  00000+0  17305-3 0  9990", "line2": "2 67029  70.0007 123.0265 0002805 263.4921  96.5919 14.98335714 34585"}, {"name": "STARLINK-36138", "line1": "1 67030U 25294A   26199.82650137  .00009672  00000+0  36042-3 0  9998", "line2": "2 67030  43.0031  17.5960 0001639 268.6195  91.4469 15.27589516 34855"}, {"name": "STARLINK-36150", "line1": "1 67031U 25294B   26200.17770321  .00005199  00000+0  19830-3 0  9994", "line2": "2 67031  43.0007  15.0714 0001614 273.6877  86.3790 15.27582254 34914"}, {"name": "STARLINK-36131", "line1": "1 67032U 25294C   26199.86233250  .00005000  00000+0  19105-3 0  9999", "line2": "2 67032  43.0031  17.0056 0001396 269.9440  90.1251 15.27587609 34862"}, {"name": "STARLINK-36137", "line1": "1 67033U 25294D   26199.85848818  .00001942  00000+0  80105-4 0  9991", "line2": "2 67033  43.0021  16.9759 0001741 269.3720  90.6932 15.27565644 34865"}, {"name": "STARLINK-36140", "line1": "1 67034U 25294E   26199.84192336  .00013217  00000+0  48881-3 0  9990", "line2": "2 67034  43.0026  17.7134 0001712 265.8951  94.1705 15.27590547 34858"}, {"name": "STARLINK-36085", "line1": "1 67035U 25294F   26199.77910951  .00008836  00000+0  32997-3 0  9996", "line2": "2 67035  43.0011  18.0986 0001611 279.3950  80.6719 15.27606497 34845"}, {"name": "STARLINK-36125", "line1": "1 67036U 25294G   26200.20725860  .00006235  00000+0  23588-3 0  9998", "line2": "2 67036  43.0032  15.2879 0001406 271.4898  88.5793 15.27582635 34919"}, {"name": "STARLINK-35732", "line1": "1 67037U 25294H   26199.83678448  .00011831  00000+0  43877-3 0  9995", "line2": "2 67037  43.0007  17.6671 0001536 265.9226  94.1450 15.27580095 34859"}, {"name": "STARLINK-35775", "line1": "1 67038U 25294J   26200.19440740  .00005441  00000+0  20709-3 0  9999", "line2": "2 67038  42.9996  15.1934 0001353 261.5761  98.4937 15.27583238 34920"}, {"name": "STARLINK-35705", "line1": "1 67039U 25294K   26200.19955116  .00011529  00000+0  42767-3 0  9990", "line2": "2 67039  42.9999  15.2283 0000332 335.2147  24.8689 15.27592248 34912"}, {"name": "STARLINK-35786", "line1": "1 67040U 25294L   26199.76882747  .00004566  00000+0  17532-3 0  9996", "line2": "2 67040  42.9997  18.0190 0001388 266.0592  94.0101 15.27584407 34845"}, {"name": "STARLINK-35765", "line1": "1 67041U 25294M   26199.82264482  .00008906  00000+0  33266-3 0  9998", "line2": "2 67041  43.0031  17.5616 0001508 267.5270  92.5409 15.27590158 34852"}, {"name": "STARLINK-35773", "line1": "1 67042U 25294N   26199.88546619  .00004388  00000+0  16889-3 0  9992", "line2": "2 67042  43.0035  17.1755 0001452 262.9510  97.1177 15.27580510 34866"}]